ORBCOMM-X               
1 21576U 91050C   25014.18184534  .00000520  00000+0  16802-3 0  9998
2 21576  98.3650  83.7950 0002590 300.7666  59.3269 14.43034873759901
ORBCOMM FM01            
1 23545U 95017A   25014.59735590  .00010013  00000+0  11297-2 0  9992
2 23545  69.9655  96.2771 0005403 244.0645 115.9951 14.86780849589659
ORBCOMM FM02            
1 23546U 95017B   25014.59678517  .00011479  00000+0  12868-2 0  9990
2 23546  69.9674 115.9706 0006409 231.2547 128.8034 14.86987940589290
ORBCOMM FM08            
1 25112U 97084A   25014.39453085  .00002733  00000+0  81935-3 0  9991
2 25112  45.0148  25.6509 0006264 212.7486 147.2977 14.44832807419125
ORBCOMM FM10            
1 25113U 97084B   25014.42308548  .00002026  00000+0  62060-3 0  9992
2 25113  45.0161  27.6364 0003273 187.0521 173.0284 14.44651156594277
ORBCOMM FM11            
1 25114U 97084C   25014.47106433  .00002367  00000+0  72113-3 0  9995
2 25114  45.0145  27.7709 0004116 182.7644 177.3185 14.44432905419248
ORBCOMM FM12            
1 25115U 97084D   25014.50449414  .00002278  00000+0  69557-3 0  9998
2 25115  45.0154  27.3717 0003147 189.4031 170.6761 14.44429396419045
ORBCOMM FM09            
1 25116U 97084E   25014.45573315  .00002350  00000+0  71756-3 0  9996
2 25116  45.0158  28.4000 0003822 161.4947 198.6044 14.44336869419241
